ORBCOMM FM05            
1 25117U 97084F   25283.10323176  .00001733  00000+0  51840-3 0  9991
2 25117  45.0131 176.1544 0002728  51.1160 308.9935 14.46349782457240
ORBCOMM FM06            
1 25118U 97084G   25283.11182690  .00001877  00000+0  55637-3 0  9994
2 25118  45.0125 175.7188 0001809  37.4155 107.8762 14.46506094458160
ORBCOMM FM07            
1 25119U 97084H   25283.02796515  .00001855  00000+0  55017-3 0  9990
2 25119  45.0120 176.8819 0003581  52.9138 307.2041 14.46520998458144
ORBCOMM FM03            
1 25158U 98007B   25283.17675876  .00001254  00000+0  48312-3 0  9994
2 25158 107.9632  11.8583 0042757  46.2495 314.2172 14.34783944440535
ORBCOMM FM04            
1 25159U 98007C   25283.14129904  .00001288  00000+0  49346-3 0  9993
2 25159 107.9619  15.0825 0038566  43.3330 317.0832 14.35027885440715
ORBCOMM FM17            
1 25413U 98046A   25282.41923806  .00001101  00000+0  42937-3 0  9994
2 25413  44.9939  78.4025 0002757  86.8745 273.2417 14.35329776419580
ORBCOMM FM18            
1 25414U 98046B   25283.20430280  .00001538  00000+0  54047-3 0  9991
2 25414  44.9944 348.9920 0004790 170.4197 189.6743 14.38886001420818
ORBCOMM FM19            
1 25415U 98046C   25283.17030972  .00001299  00000+0  46547-3 0  9992
2 25415  44.9956 351.3307 0003570 174.0314 207.0992 14.38701117420764
